- !!map
  id:                 0
  name:               Ran
  radius:             696342000
  mass:               1.9884098713264222e+30
  stdGravParam:       132712440041939390000
  soi:                .inf
  color:              0xffff00

- !!map
  id:                 1
  name:               NotEarth
  radius:             6371000
  atmosphereAlt:      140000.0
  mass:               5.9721683987249e+24
  stdGravParam:       398600435436096
  soi:                924649202.4610229
  orbit:
    semiMajorAxis:    149598261150.4425
    eccentricity:     0.00
    inclination:      0
    argOfPeriapsis:   0
    ascNodeLongitude: 0
  meanAnomaly0:       0
  epoch:              0
  orbiting:           0
  color:              0x4662

- !!map
  id:                 2
  name:               NotJupiter
  radius:             69373000
  atmosphereAlt:      1550000.0
  mass:               1.8981246710786271e+27
  stdGravParam:       126686534921800800
  soi:                48196176124.28713
  orbit:
    semiMajorAxis:    778188938659.7554
    eccentricity:     0
    inclination:      0.1
    argOfPeriapsis:   90
    ascNodeLongitude: 0
  meanAnomaly0:       0
  epoch:              0
  orbiting:           0
  color:              0xbe9666

- !!map
  id:                 11
  name:               NotIo
  radius:             1811300
  mass:               8.929649601322094e+22
  stdGravParam:       5959916033410.404
  soi:                7840344.603668602
  orbit:
    semiMajorAxis:    422018294.5236953
    eccentricity:     0.003545858426216978
    inclination:      25.46409538664874
    argOfPeriapsis:   231.2703460977786
    ascNodeLongitude: 358.046643167846
  meanAnomaly0:       3.4091064061869685
  epoch:              0
  orbiting:           2
  color:              0xa4a05c

- !!map
  id:                 12
  name:               NotEuropa
  radius:             1550800
  mass:               4.798613749641e+22
  stdGravParam:       3202738774922.892
  soi:                9727541.139687302
  orbit:
    semiMajorAxis:    671253637.5417169
    eccentricity:     0.009511727119926178
    inclination:      25.70364276471991
    argOfPeriapsis:   53.13210737539627
    ascNodeLongitude: 358.9360081847504
  meanAnomaly0:       4.821737415499958
  epoch:              0
  orbiting:           2
  color:              0xc5c6ac

- !!map
  id:                 13
  name:               NotGanymede
  radius:             2624100
  mass:               1.4814788746886034e+23
  stdGravParam:       9887834453334.145
  soi:                24359376.755679477
  orbit:
    semiMajorAxis:    1070823468.894524
    eccentricity:     0.001190086418361844
    inclination:      25.27071366962049
    argOfPeriapsis:   139.2992571342065
    ascNodeLongitude: 358.0125219248113
  meanAnomaly0:       4.060950472376478
  epoch:              0
  orbiting:           2
  color:              0x947f64

- !!map
  id:                 3
  name:               NotSaturn
  radius:             57216000
  atmosphereAlt:      2000000.0
  mass:               5.6831738906929933e+26
  stdGravParam:       37931207498652240
  soi:                54475312962.69387
  orbit:
    semiMajorAxis:    1424838758613.269
    eccentricity:     0
    inclination:      0
    argOfPeriapsis:   0
    ascNodeLongitude: 0
  meanAnomaly0:       0
  epoch:              0
  orbiting:           0
  color:              0xe9d7b4

- !!map
  id:                 16
  name:               Mimas
  radius:             198200
  mass:               37509911151731270000
  stdGravParam:       2503524000
  soi:                249664.42402284587
  orbit:
    semiMajorAxis:    186009285.922049
    eccentricity:     0.01776275223147744
    inclination:      1.572
    argOfPeriapsis:   222.2172789396715
    ascNodeLongitude: 139.7604722490289
  meanAnomaly0:       2.1919760798055545
  epoch:              0
  orbiting:           3
  color:              0xffffff

- !!map
  id:                 17
  name:               Enceladus
  radius:             252100
  mass:               108048097415848870000
  stdGravParam:       7211454165.826
  soi:                488586.74254165136
  orbit:
    semiMajorAxis:    238413699.4838728
    eccentricity:     0.006227897999957464
    inclination:      0.009
    argOfPeriapsis:   115.5615886062458
    ascNodeLongitude: 128.4244161601446
  meanAnomaly0:       6.049837363294359
  epoch:              0
  orbiting:           3
  color:              0xffffff

- !!map
  id:                 18
  name:               Tethys
  radius:             531100
  mass:               617459176638898600000
  stdGravParam:       41211077826.41
  soi:                1213919.4442904096
  orbit:
    semiMajorAxis:    294973462.3804425
    eccentricity:     0.001064868868083566
    inclination:      1.091
    argOfPeriapsis:   215.9196892523803
    ascNodeLongitude: 119.2518388332899
  meanAnomaly0:       6.105565273654561
  epoch:              0
  orbiting:           3
  color:              0xffffff

- !!map
  id:                 19
  name:               Dione
  radius:             561400
  mass:               1.0954911599316785e+21
  stdGravParam:       73116366487.32
  soi:                1954777.8593541621
  orbit:
    semiMajorAxis:    377650651.501709
    eccentricity:     0.001679230905502774
    inclination:      0.028
    argOfPeriapsis:   123.671715604926
    ascNodeLongitude: 128.5606071129818
  meanAnomaly0:       2.9308839134421727
  epoch:              0
  orbiting:           3
  color:              0xffffff

- !!map
  id:                 20
  name:               Rhea
  radius:             763800
  mass:               2.306496027351183e+21
  stdGravParam:       153942464353.5
  soi:                3675619.316702547
  orbit:
    semiMajorAxis:    527212645.707199
    eccentricity:     0.001168269515756326
    inclination:      0.331
    argOfPeriapsis:   172.7367089889645
    ascNodeLongitude: 130.3670574820431
  meanAnomaly0:       0.23542531935505198
  epoch:              0
  orbiting:           3
  color:              0xffffff

- !!map
  id:                 21
  name:               Titan
  radius:             2573300
  atmosphereAlt:      600000.0
  mass:               1.3451395352321593e+23
  stdGravParam:       8977864800000
  soi:                43324121.40105091
  orbit:
    semiMajorAxis:    1221966238.511425
    eccentricity:     0.02891936561555365
    inclination:      6.460492679775526
    argOfPeriapsis:   182.0886765021483
    ascNodeLongitude: 126.4945233702913
  meanAnomaly0:       1.311809948776336
  epoch:              0
  orbiting:           3
  color:              0xb27f3f

- !!map
  id:                 22
  name:               Iapetus
  radius:             734500
  mass:               1.8056139026309878e+21
  stdGravParam:       120512088703.3
  soi:                22505227.67654332
  orbit:
    semiMajorAxis:    3560162593.02297
    eccentricity:     0.0288028628196961
    inclination:      7.489
    argOfPeriapsis:   314.3819081366686
    ascNodeLongitude: 50.29392880240187
  meanAnomaly0:       2.4359269334587883
  epoch:              0
  orbiting:           3
  color:              0xffffff

- !!map
  id:                 4
  name:               NotUranus
  radius:             24702000
  atmosphereAlt:      1400000.0
  mass:               8.680987253013813e+25
  stdGravParam:       5793951322279009
  soi:                51692514225.02219
  orbit:
    semiMajorAxis:    2866832853163.975
    eccentricity:     0
    inclination:      0
    argOfPeriapsis:   0
    ascNodeLongitude: 0
  meanAnomaly0:       0
  epoch:              0
  orbiting:           0
  color:              0x6093c6

- !!map
  id:                 24
  name:               Miranda
  radius:             235700
  mass:               64718650633506140000
  stdGravParam:       4319516899.2321
  soi:                459755.1188786744
  orbit:
    semiMajorAxis:    129880047.634175
    eccentricity:     0.00118741261963413
    inclination:      78.5887546839913
    argOfPeriapsis:   326.7575256535064
    ascNodeLongitude: 169.064212054828
  meanAnomaly0:       4.4156939860723
  epoch:              0
  orbiting:           4
  color:              0xffffff

- !!map
  id:                 25
  name:               Ariel
  radius:             578900
  mass:               1.2505198195721615e+21
  stdGravParam:       83463444317.70477
  soi:                2209608.9963886514
  orbit:
    semiMajorAxis:    190944364.477622
    eccentricity:     0.00190951361476287
    inclination:      74.8989043025419
    argOfPeriapsis:   169.996640499191
    ascNodeLongitude: 166.5671084714081
  meanAnomaly0:       0.810944190678705
  epoch:              0
  orbiting:           4
  color:              0xffffff

- !!map
  id:                 26
  name:               Umbriel
  radius:             584700
  mass:               1.274940906835082e+21
  stdGravParam:       85093380944.89388
  soi:                3101969.6038675
  orbit:
    semiMajorAxis:    265992360.127656
    eccentricity:     0.0038334454580725
    inclination:      74.9939984108702
    argOfPeriapsis:   207.7259222157362
    ascNodeLongitude: 166.5601075193709
  meanAnomaly0:       1.995350222525624
  epoch:              0
  orbiting:           4
  color:              0xffffff

- !!map
  id:                 27
  name:               Titania
  radius:             788900
  mass:               3.4002622053867046e+21
  stdGravParam:       226943700374.1248
  soi:                7532779.334918171
  orbit:
    semiMajorAxis:    436292682.967703
    eccentricity:     0.002486916
    inclination:      75.045766393
    argOfPeriapsis:   165.7455424030838
    ascNodeLongitude: 166.6555214910122
  meanAnomaly0:       3.711534845860309
  epoch:              0
  orbiting:           4
  color:              0xffffff

- !!map
  id:                 28
  name:               Oberon
  radius:             761400
  mass:               3.0763290570331317e+21
  stdGravParam:       205323430253.5623
  soi:                9677834.494020225
  orbit:
    semiMajorAxis:    583435328.340603
    eccentricity:     0.00110558297330948
    inclination:      74.9349049752716
    argOfPeriapsis:   274.4599570542317
    ascNodeLongitude: 166.6887328903476
  meanAnomaly0:       4.651563202426656
  epoch:              0
  orbiting:           4
  color:              0xffffff

- !!map
  id:                 5
  name:               NotNeptune
  radius:             24085000
  atmosphereAlt:      1250000.0
  mass:               1.0240923396370664e+26
  stdGravParam:       6835099502439672
  soi:                86636358530.1769
  orbit:
    semiMajorAxis:    4497455832811.736
    eccentricity:     0
    inclination:      0
    argOfPeriapsis:   0
    ascNodeLongitude: 0
  meanAnomaly0:       0
  epoch:              0
  orbiting:           0
  color:              0x305490

- !!map
  id:                 29
  name:               NotTriton
  radius:             1353400
  atmosphereAlt:      110000.0
  mass:               2.138948115495309e+22
  stdGravParam:       1427598140725.034
  soi:                11964318.522340473
  orbit:
    semiMajorAxis:    354767243.5406647
    eccentricity:     0.0001688014359763687
    inclination:      156.834
    argOfPeriapsis:   220.4523286895169
    ascNodeLongitude: 197.1953239788069
  meanAnomaly0:       6.25973135910971
  epoch:              0
  orbiting:           5
  color:              0xffffff
